{
  "type": "FeatureCollection",
  "features": [
    {
      "type": "Feature",
      "properties": {
        "norad_id": 30004,
        "name": "FENGYUN 1C DEB",
        "group": "fengyun-1c-debris",
        "lat": -15.539905512757215,
        "lon": -1.7118058247563255,
        "alt_km": 850.0346219107632,
        "timestamp": "2025-12-25T07:00:34.318930+00:00",
        "meta_object_name": "FENGYUN 1C DEB",
        "meta_object_id": "1999-025MD",
        "meta_epoch": "2025-12-24T11:42:16.941312",
        "meta_mean_motion": 14.17092301,
        "meta_eccentricity": 0.0038466,
        "meta_inclination": 99.2237,
        "meta_ra_of_asc_node": 180.0441,
        "meta_arg_of_pericenter": 309.5817,
        "meta_mean_anomaly": 105.2199,
        "meta_ephemeris_type": 0,
        "meta_classification_type": "U",
        "meta_norad_cat_id": 30004,
        "meta_element_set_no": 999,
        "meta_rev_at_epoch": 97473,
        "meta_bstar": 0.00070081871,
        "meta_mean_motion_dot": 1.373e-05,
        "meta_mean_motion_ddot": 0,
        "tle_line1": "1 30004U 99025MD  25358.48769608  .00001373  00000+0  70082-3 0  9996",
        "tle_line2": "2 30004  99.2237 180.0441 0038466 309.5817 105.2199 14.17092301974734"
      },
      "geometry": {
        "type": "Point",
        "coordinates": [
          -1.7118058247563255,
          -15.539905512757215
        ]
      }
    },
    {
      "type": "Feature",
      "properties": {
        "norad_id": 30005,
        "name": "FENGYUN 1C DEB",
        "group": "fengyun-1c-debris",
        "lat": -21.708816380920638,
        "lon": -35.77363409600758,
        "alt_km": 1031.294888455368,
        "timestamp": "2025-12-25T07:00:34.318941+00:00",
        "meta_object_name": "FENGYUN 1C DEB",
        "meta_object_id": "1999-025ME",
        "meta_epoch": "2025-12-24T20:27:41.265216",
        "meta_mean_motion": 13.52248613,
        "meta_eccentricity": 0.03472589,
        "meta_inclination": 99.3042,
        "meta_ra_of_asc_node": 320.0713,
        "meta_arg_of_pericenter": 62.757,
        "meta_mean_anomaly": 300.8498,
        "meta_ephemeris_type": 0,
        "meta_classification_type": "U",
        "meta_norad_cat_id": 30005,
        "meta_element_set_no": 999,
        "meta_rev_at_epoch": 93110,
        "meta_bstar": 0.0014566307,
        "meta_mean_motion_dot": 1.365e-05,
        "meta_mean_motion_ddot": 0,
        "tle_line1": "1 30005U 99025ME  25358.85256094  .00001365  00000+0  14566-2 0  9993",
        "tle_line2": "2 30005  99.3042 320.0713 0347258  62.7570 300.8498 13.52248613931100"
      },
      "geometry": {
        "type": "Point",
        "coordinates": [
          -35.77363409600758,
          -21.708816380920638
        ]
      }
    },
    {
      "type": "Feature",
      "properties": {
        "norad_id": 30007,
        "name": "FENGYUN 1C DEB",
        "group": "fengyun-1c-debris",
        "lat": -80.78128506447398,
        "lon": -13.805165294125409,
        "alt_km": 796.8713615119668,
        "timestamp": "2025-12-25T07:00:34.318951+00:00",
        "meta_object_name": "FENGYUN 1C DEB",
        "meta_object_id": "1999-025MG",
        "meta_epoch": "2025-12-24T16:24:03.384000",
        "meta_mean_motion": 14.25512495,
        "meta_eccentricity": 0.00652654,
        "meta_inclination": 99.1781,
        "meta_ra_of_asc_node": 260.5839,
        "meta_arg_of_pericenter": 341.3921,
        "meta_mean_anomaly": 48.1387,
        "meta_ephemeris_type": 0,
        "meta_classification_type": "U",
        "meta_norad_cat_id": 30007,
        "meta_element_set_no": 999,
        "meta_rev_at_epoch": 97526,
        "meta_bstar": 0.0018666225,
        "meta_mean_motion_dot": 4.466e-05,
        "meta_mean_motion_ddot": 0,
        "tle_line1": "1 30007U 99025MG  25358.68337250  .00004466  00000+0  18666-2 0  9990",
        "tle_line2": "2 30007  99.1781 260.5839 0065265 341.3921  48.1387 14.25512495975265"
      },
      "geometry": {
        "type": "Point",
        "coordinates": [
          -13.805165294125409,
          -80.78128506447398
        ]
      }
    },
    {
      "type": "Feature",
      "properties": {
        "norad_id": 30008,
        "name": "FENGYUN 1C DEB",
        "group": "fengyun-1c-debris",
        "lat": -36.293872135582966,
        "lon": 130.46588518960246,
        "alt_km": 666.0134505087053,
        "timestamp": "2025-12-25T07:00:34.318962+00:00",
        "meta_object_name": "FENGYUN 1C DEB",
        "meta_object_id": "1999-025MH",
        "meta_epoch": "2025-12-24T20:26:49.837344",
        "meta_mean_motion": 14.66537658,
        "meta_eccentricity": 0.00395557,
        "meta_inclination": 99.3702,
        "meta_ra_of_asc_node": 316.9292,
        "meta_arg_of_pericenter": 154.2696,
        "meta_mean_anomaly": 259.9049,
        "meta_ephemeris_type": 0,
        "meta_classification_type": "U",
        "meta_norad_cat_id": 30008,
        "meta_element_set_no": 999,
        "meta_rev_at_epoch": 99237,
        "meta_bstar": 0.002117651,
        "meta_mean_motion_dot": 0.00011838,
        "meta_mean_motion_ddot": 0,
        "tle_line1": "1 30008U 99025MH  25358.85196571  .00011838  00000+0  21177-2 0  9991",
        "tle_line2": "2 30008  99.3702 316.9292 0039555 154.2696 259.9049 14.66537658992374"
      },
      "geometry": {
        "type": "Point",
        "coordinates": [
          130.46588518960246,
          -36.293872135582966
        ]
      }
    },
    {
      "type": "Feature",
      "properties": {
        "norad_id": 30009,
        "name": "FENGYUN 1C DEB",
        "group": "fengyun-1c-debris",
        "lat": 18.293564564901025,
        "lon": 51.12321395173916,
        "alt_km": 868.0435752730473,
        "timestamp": "2025-12-25T07:00:34.318972+00:00",
        "meta_object_name": "FENGYUN 1C DEB",
        "meta_object_id": "1999-025MJ",
        "meta_epoch": "2025-12-24T17:14:52.700064",
        "meta_mean_motion": 14.0489037,
        "meta_eccentricity": 0.00644372,
        "meta_inclination": 99.0143,
        "meta_ra_of_asc_node": 53.5619,
        "meta_arg_of_pericenter": 301.0905,
        "meta_mean_anomaly": 58.395,
        "meta_ephemeris_type": 0,
        "meta_classification_type": "U",
        "meta_norad_cat_id": 30009,
        "meta_element_set_no": 999,
        "meta_rev_at_epoch": 96651,
        "meta_bstar": 0.000956218,
        "meta_mean_motion_dot": 1.52e-05,
        "meta_mean_motion_ddot": 0,
        "tle_line1": "1 30009U 99025MJ  25358.71866551  .00001520  00000+0  95622-3 0  9993",
        "tle_line2": "2 30009  99.0143  53.5619 0064437 301.0905  58.3950 14.04890370966514"
      },
      "geometry": {
        "type": "Point",
        "coordinates": [
          51.12321395173916,
          18.293564564901025
        ]
      }
    },
    {
      "type": "Feature",
      "properties": {
        "norad_id": 30010,
        "name": "FENGYUN 1C DEB",
        "group": "fengyun-1c-debris",
        "lat": 36.10582329117972,
        "lon": -174.8223371449706,
        "alt_km": 843.9289299959619,
        "timestamp": "2025-12-25T07:00:34.318982+00:00",
        "meta_object_name": "FENGYUN 1C DEB",
        "meta_object_id": "1999-025MK",
        "meta_epoch": "2025-12-24T19:08:06.537696",
        "meta_mean_motion": 14.24995028,
        "meta_eccentricity": 0.00732146,
        "meta_inclination": 99.0695,
        "meta_ra_of_asc_node": 191.3569,
        "meta_arg_of_pericenter": 174.6323,
        "meta_mean_anomaly": 205.9541,
        "meta_ephemeris_type": 0,
        "meta_classification_type": "U",
        "meta_norad_cat_id": 30010,
        "meta_element_set_no": 999,
        "meta_rev_at_epoch": 98432,
        "meta_bstar": 0.00011947762,
        "meta_mean_motion_dot": 2.4e-06,
        "meta_mean_motion_ddot": 0,
        "tle_line1": "1 30010U 99025MK  25358.79729789  .00000240  00000+0  11948-3 0  9991",
        "tle_line2": "2 30010  99.0695 191.3569 0073214 174.6323 205.9541 14.24995028984327"
      },
      "geometry": {
        "type": "Point",
        "coordinates": [
          -174.8223371449706,
          36.10582329117972
        ]
      }
    },
    {
      "type": "Feature",
      "properties": {
        "norad_id": 30012,
        "name": "FENGYUN 1C DEB",
        "group": "fengyun-1c-debris",
        "lat": 18.76008529287133,
        "lon": 49.40033576370336,
        "alt_km": 948.0205899228931,
        "timestamp": "2025-12-25T07:00:34.318992+00:00",
        "meta_object_name": "FENGYUN 1C DEB",
        "meta_object_id": "1999-025MM",
        "meta_epoch": "2025-12-24T03:27:28.524096",
        "meta_mean_motion": 13.85773382,
        "meta_eccentricity": 0.0137226,
        "meta_inclination": 99.4626,
        "meta_ra_of_asc_node": 51.4885,
        "meta_arg_of_pericenter": 115.4896,
        "meta_mean_anomaly": 301.2239,
        "meta_ephemeris_type": 0,
        "meta_classification_type": "U",
        "meta_norad_cat_id": 30012,
        "meta_element_set_no": 999,
        "meta_rev_at_epoch": 95706,
        "meta_bstar": 0.00027311137,
        "meta_mean_motion_dot": 2.92e-06,
        "meta_mean_motion_ddot": 0,
        "tle_line1": "1 30012U 99025MM  25358.14408014  .00000292  00000+0  27311-3 0  9995",
        "tle_line2": "2 30012  99.4626  51.4885 0137226 115.4896 301.2239 13.85773382957064"
      },
      "geometry": {
        "type": "Point",
        "coordinates": [
          49.40033576370336,
          18.76008529287133
        ]
      }
    }
  ]
}